{"type": "FeatureCollection", "features": [ {"type": "Feature", "properties": {"norad_id": 33799, "name": "COSMOS 2251 DEB", "group": "cosmos-2251-debris", "lat": 18.756186269912313, "lon": 80.62814333025554, "alt_km": 639.6360747165927, "timestamp": "2025-12-16T03:53:27.447846+00:00", "meta": {"OBJECT_NAME": "COSMOS 2251 DEB", "OBJECT_ID": "1993-036AQ", "EPOCH": "2025-12-15T08:39:22.101408", "MEAN_MOTION": 14.79640718, "ECCENTRICITY": 0.00231713, "INCLINATION": 74.032, "RA_OF_ASC_NODE": 76.6258, "ARG_OF_PERICENTER": 146.3514, "MEAN_ANOMALY": 286.1938, "EPHEMERIS_TYPE": 0, "CLASSIFICATION_TYPE": "U", "NORAD_CAT_ID": 33799, "ELEMENT_SET_NO": 999, "REV_AT_EPOCH": 88850, "BSTAR": 0.00073629988, "MEAN_MOTION_DOT": 5.518e-05, "MEAN_MOTION_DDOT": 0}, "tle": {"line1": "1 33799U 93036AQ  25349.36067247  .00005518  00000+0  73630-3 0  9990", "line2": "2 33799  74.0320  76.6258 0023171 146.3514 286.1938 14.79640718888504"}}, "geometry": {"type": "Point", "coordinates": [80.62814333025554, 18.756186269912313]}}, {"type": "Feature", "properties": {"norad_id": 33805, "name": "COSMOS 2251 DEB", "group": "cosmos-2251-debris", "lat": -62.391919376737484, "lon": 158.01990558254602, "alt_km": 724.2123038902582, "timestamp": "2025-12-16T03:53:27.447856+00:00", "meta": {"OBJECT_NAME": "COSMOS 2251 DEB", "OBJECT_ID": "1993-036AW", "EPOCH": "2025-12-15T07:00:10.713888", "MEAN_MOTION": 14.57861431, "ECCENTRICITY": 0.00601204, "INCLINATION": 74.0309, "RA_OF_ASC_NODE": 306.4758, "ARG_OF_PERICENTER": 134.7072, "MEAN_ANOMALY": 225.9013, "EPHEMERIS_TYPE": 0, "CLASSIFICATION_TYPE": "U", "NORAD_CAT_ID": 33805, "ELEMENT_SET_NO": 999, "REV_AT_EPOCH": 89264, "BSTAR": 0.00025394174, "MEAN_MOTION_DOT": 1.162e-05, "MEAN_MOTION_DDOT": 0}, "tle": {"line1": "1 33805U 93036AW  25349.29179067  .00001162  00000+0  25394-3 0  9999", "line2": "2 33805  74.0309 306.4758 0060120 134.7072 225.9013 14.57861431892641"}}, "geometry": {"type": "Point", "coordinates": [158.01990558254602, -62.391919376737484]}}, {"type": "Feature", "properties": {"norad_id": 33811, "name": "COSMOS 2251 DEB", "group": "cosmos-2251-debris", "lat": -20.38672191218002, "lon": -70.62840523069968, "alt_km": 538.1556084860649, "timestamp": "2025-12-16T03:53:27.447867+00:00", "meta": {"OBJECT_NAME": "COSMOS 2251 DEB", "OBJECT_ID": "1993-036BC", "EPOCH": "2025-12-15T07:55:48.842688", "MEAN_MOTION": 15.05355396, "ECCENTRICITY": 0.0030836, "INCLINATION": 73.8376, "RA_OF_ASC_NODE": 297.2832, "ARG_OF_PERICENTER": 17.6431, "MEAN_ANOMALY": 136.0959, "EPHEMERIS_TYPE": 0, "CLASSIFICATION_TYPE": "U", "NORAD_CAT_ID": 33811, "ELEMENT_SET_NO": 999, "REV_AT_EPOCH": 90057, "BSTAR": 0.00070621257, "MEAN_MOTION_DOT": 0.00010197, "MEAN_MOTION_DDOT": 0}, "tle": {"line1": "1 33811U 93036BC  25349.33042642  .00010197  00000+0  70621-3 0  9990", "line2": "2 33811  73.8376 297.2832 0030836  17.6431 136.0959 15.05355396900573"}}, "geometry": {"type": "Point", "coordinates": [-70.62840523069968, -20.38672191218002]}}, {"type": "Feature", "properties": {"norad_id": 33815, "name": "COSMOS 2251 DEB", "group": "cosmos-2251-debris", "lat": -28.78850859874585, "lon": -1.5090091822673168, "alt_km": 513.8827363876117, "timestamp": "2025-12-16T03:53:27.447878+00:00", "meta": {"OBJECT_NAME": "COSMOS 2251 DEB", "OBJECT_ID": "1993-036BG", "EPOCH": "2025-12-14T23:10:32.909088", "MEAN_MOTION": 15.18699884, "ECCENTRICITY": 0.0001527, "INCLINATION": 73.9514, "RA_OF_ASC_NODE": 171.9048, "ARG_OF_PERICENTER": 248.3603, "MEAN_ANOMALY": 262.5563, "EPHEMERIS_TYPE": 0, "CLASSIFICATION_TYPE": "U", "NORAD_CAT_ID": 33815, "ELEMENT_SET_NO": 999, "REV_AT_EPOCH": 88404, "BSTAR": 0.003941796, "MEAN_MOTION_DOT": 0.00082715, "MEAN_MOTION_DDOT": 0}, "tle": {"line1": "1 33815U 93036BG  25348.96565867  .00082715  00000+0  39418-2 0  9994", "line2": "2 33815  73.9514 171.9048 0001527 248.3603 262.5563 15.18699884884044"}}, "geometry": {"type": "Point", "coordinates": [-1.5090091822673168, -28.78850859874585]}}, {"type": "Feature", "properties": {"norad_id": 33816, "name": "COSMOS 2251 DEB", "group": "cosmos-2251-debris", "lat": -10.593264969611322, "lon": -77.30695022770979, "alt_km": 919.598225987218, "timestamp": "2025-12-16T03:53:27.447888+00:00", "meta": {"OBJECT_NAME": "COSMOS 2251 DEB", "OBJECT_ID": "1993-036BH", "EPOCH": "2025-12-15T07:53:05.819712", "MEAN_MOTION": 13.81786482, "ECCENTRICITY": 0.02645618, "INCLINATION": 73.895, "RA_OF_ASC_NODE": 101.0081, "ARG_OF_PERICENTER": 113.4297, "MEAN_ANOMALY": 249.4881, "EPHEMERIS_TYPE": 0, "CLASSIFICATION_TYPE": "U", "NORAD_CAT_ID": 33816, "ELEMENT_SET_NO": 999, "REV_AT_EPOCH": 84709, "BSTAR": 0.00042399978, "MEAN_MOTION_DOT": 5.71e-06, "MEAN_MOTION_DDOT": 0}, "tle": {"line1": "1 33816U 93036BH  25349.32853958  .00000571  00000+0  42400-3 0  9993", "line2": "2 33816  73.8950 101.0081 0264561 113.4297 249.4881 13.81786482847099"}}, "geometry": {"type": "Point", "coordinates": [-77.30695022770979, -10.593264969611322]}}, {"type": "Feature", "properties": {"norad_id": 33818, "name": "COSMOS 2251 DEB", "group": "cosmos-2251-debris", "lat": 23.797195708338503, "lon": 166.39953110150182, "alt_km": 536.512790914996, "timestamp": "2025-12-16T03:53:27.447899+00:00", "meta": {"OBJECT_NAME": "COSMOS 2251 DEB", "OBJECT_ID": "1993-036BK", "EPOCH": "2025-12-15T06:20:04.729632", "MEAN_MOTION": 15.12714105, "ECCENTRICITY": 0.00264125, "INCLINATION": 74.0761, "RA_OF_ASC_NODE": 161.0228, "ARG_OF_PERICENTER": 148.8328, "MEAN_ANOMALY": 27.0877, "EPHEMERIS_TYPE": 0, "CLASSIFICATION_TYPE": "U", "NORAD_CAT_ID": 33818, "ELEMENT_SET_NO": 999, "REV_AT_EPOCH": 89900, "BSTAR": 0.0016710494, "MEAN_MOTION_DOT": 0.00029602, "MEAN_MOTION_DDOT": 0}, "tle": {"line1": "1 33818U 93036BK  25349.26394363  .00029602  00000+0  16710-2 0  9998", "line2": "2 33818  74.0761 161.0228 0026412 148.8328  27.0877 15.12714105899003"}}, "geometry": {"type": "Point", "coordinates": [166.39953110150182, 23.797195708338503]}}, {"type": "Feature", "properties": {"norad_id": 33819, "name": "COSMOS 2251 DEB", "group": "cosmos-2251-debris", "lat": -56.02369781820925, "lon": 48.53882856976975, "alt_km": 854.6332696823147, "timestamp": "2025-12-16T03:53:27.447909+00:00", "meta": {"OBJECT_NAME": "COSMOS 2251 DEB", "OBJECT_ID": "1993-036BL", "EPOCH": "2025-12-15T02:24:38.509344", "MEAN_MOTION": 14.32232491, "ECCENTRICITY": 0.00891404, "INCLINATION": 74.1786, "RA_OF_ASC_NODE": 205.5756, "ARG_OF_PERICENTER": 66.1733, "MEAN_ANOMALY": 101.3829, "EPHEMERIS_TYPE": 0, "CLASSIFICATION_TYPE": "U", "NORAD_CAT_ID": 33819, "ELEMENT_SET_NO": 999, "REV_AT_EPOCH": 87529, "BSTAR": 0.00056275074, "MEAN_MOTION_DOT": 1.561e-05, "MEAN_MOTION_DDOT": 0}, "tle": {"line1": "1 33819U 93036BL  25349.10044571  .00001561  00000+0  56275-3 0  9990", "line2": "2 33819  74.1786 205.5756 0089140  66.1733 101.3829 14.32232491875293"}}, "geometry": {"type": "Point", "coordinates": [48.53882856976975, -56.02369781820925]}}, {"type": "Feature", "properties": {"norad_id": 33821, "name": "COSMOS 2251 DEB", "group": "cosmos-2251-debris", "lat": -15.261128080593238, "lon": 131.1196202668939, "alt_km": 528.8769295954426, "timestamp": "2025-12-16T03:53:27.447920+00:00", "meta": {"OBJECT_NAME": "COSMOS 2251 DEB", "OBJECT_ID": "1993-036BN", "EPOCH": "2025-12-14T20:28:55.117344", "MEAN_MOTION": 15.25458881, "ECCENTRICITY": 0.00513762, "INCLINATION": 74.0288, "RA_OF_ASC_NODE": 138.3678, "ARG_OF_PERICENTER": 171.1464, "MEAN_ANOMALY": 189.0656, "EPHEMERIS_TYPE": 0, "CLASSIFICATION_TYPE": "U", "NORAD_CAT_ID": 33821, "ELEMENT_SET_NO": 999, "REV_AT_EPOCH": 75033, "BSTAR": 0.00087444969, "MEAN_MOTION_DOT": 0.00023008, "MEAN_MOTION_DDOT": 0}, "tle": {"line1": "1 33821U 93036BN  25348.85341571  .00023008  00000+0  87445-3 0  9997", "line2": "2 33821  74.0288 138.3678 0051376 171.1464 189.0656 15.25458881750330"}}, "geometry": {"type": "Point", "coordinates": [131.1196202668939, -15.261128080593238]}}, {"type": "Feature", "properties": {"norad_id": 33822, "name": "COSMOS 2251 DEB", "group": "cosmos-2251-debris", "lat": -8.94113325681057, "lon": 10.216834052035376, "alt_km": 772.0367430483866, "timestamp": "2025-12-16T03:53:27.447930+00:00", "meta": {"OBJECT_NAME": "COSMOS 2251 DEB", "OBJECT_ID": "1993-036BP", "EPOCH": "2025-12-15T00:32:38.502240", "MEAN_MOTION": 14.13081815, "ECCENTRICITY": 0.01531235, "INCLINATION": 74.0692, "RA_OF_ASC_NODE": 189.6521, "ARG_OF_PERICENTER": 235.4384, "MEAN_ANOMALY": 280.7179, "EPHEMERIS_TYPE": 0, "CLASSIFICATION_TYPE": "U", "NORAD_CAT_ID": 33822, "ELEMENT_SET_NO": 999, "REV_AT_EPOCH": 86086, "BSTAR": 0.00098205663, "MEAN_MOTION_DOT": 2.025e-05, "MEAN_MOTION_DDOT": 0}, "tle": {"line1": "1 33822U 93036BP  25349.02266785  .00002025  00000+0  98206-3 0  9994", "line2": "2 33822  74.0692 189.6521 0153123 235.4384 280.7179 14.13081815860868"}}, "geometry": {"type": "Point", "coordinates": [10.216834052035376, -8.94113325681057]}}, {"type": "Feature", "properties": {"norad_id": 33823, "name": "COSMOS 2251 DEB", "group": "cosmos-2251-debris", "lat": -15.930583014558477, "lon": -31.910305975334023, "alt_km": 850.4301349845537, "timestamp": "2025-12-16T03:53:27.447941+00:00", "meta": {"OBJECT_NAME": "COSMOS 2251 DEB", "OBJECT_ID": "1993-036BQ", "EPOCH": "2025-12-15T03:28:48.080352", "MEAN_MOTION": 13.98955808, "ECCENTRICITY": 0.02093477, "INCLINATION": 73.8089, "RA_OF_ASC_NODE": 145.1147, "ARG_OF_PERICENTER": 269.8842, "MEAN_ANOMALY": 208.3538, "EPHEMERIS_TYPE": 0, "CLASSIFICATION_TYPE": "U", "NORAD_CAT_ID": 33823, "ELEMENT_SET_NO": 999, "REV_AT_EPOCH": 85643, "BSTAR": 0.00079271563, "MEAN_MOTION_DOT": 1.354e-05, "MEAN_MOTION_DDOT": 0}, "tle": {"line1": "1 33823U 93036BQ  25349.14500093  .00001354  00000+0  79272-3 0  9997", "line2": "2 33823  73.8089 145.1147 0209347 269.8842 208.3538 13.98955808856434"}}, "geometry": {"type": "Point", "coordinates": [-31.910305975334023, -15.930583014558477]}}]}